{
    "type": "FeatureCollection",
    "features": [
        {
            "type": "Feature",
            "geometry": {
                "type": "Point",
                "coordinates": [
                    2.3433,
                    48.8483
                ]
            },
            "properties": {
                "name": "Chapelle de la Sorbonne",
                "label": "Sorbonne Chapel, Paris, France",
                "keywords": [
                    "Cinematic Churches"
                ],
                "movies": [
                    "Paris nous appartient"
                ],
                "poster_url": "img/img_movie/chapelleDeLaSorbonneModern.png"
            },
            "bbox": [
                2.3433,
                48.8483,
                2.3433,
                48.8483
            ]
        },
        {
            "type": "Feature",
            "geometry": {
                "type": "Point",
                "coordinates": [
                    2.3333,
                    48.8505
                ]
            },
            "properties": {
                "name": "Church of Saint-Sulpice",
                "label": "Church of Saint-Sulpice, Paris, France",
                "keywords": [
                    "Top 10 locations",
                    "Cinematic Churches"
                ],
                "movies": [
                    "Paris nous appartient"
                ],
                "poster_url": "img/img_movie/saintSulpiceModern.png"
            },
            "bbox": [
                2.3333,
                48.8505,
                2.3333,
                48.8505
            ]
        },
        {
            "type": "Feature",
            "geometry": {
                "type": "Point",
                "coordinates": [
                    2.3375,
                    48.8583
                ]
            },
            "properties": {
                "name": "Pont des Arts",
                "label": "Pont des Arts, Paris, France",
                "keywords": [
                    "Top 10 locations"
                ],
                "movies": [
                    "Paris nous appartient"
                ],
                "poster_url": "img/img_movie/pontsDesArtsModern.png"
            },
            "bbox": [
                2.3375,
                48.8583,
                2.3375,
                48.8583
            ]
        },
        {
            "type": "Feature",
            "geometry": {
                "type": "Point",
                "coordinates": [
                    2.2961,
                    48.8738
                ]
            },
            "properties": {
                "name": "Café le Presbourg",
                "label": "Café le Presbourg, Paris, France",
                "keywords": [],
                "movies": [
                    "Paris nous appartient"
                ],
                "poster_url": "img/img_movie/cafeLePresbourgModern.jpg"
            },
            "bbox": [
                2.2961,
                48.8738,
                2.2961,
                48.8738
            ]
        },
        {
            "type": "Feature",
            "geometry": {
                "type": "Point",
                "coordinates": [
                    2.3499,
                    48.8529
                ]
            },
            "properties": {
                "name": "Notre Dame",
                "label": "Notre-Dame Cathedral, Paris, France",
                "keywords": [
                    "Jean-Luc Godard",
                    "Top 10 locations",
                    "Cinematic Churches"
                ],
                "movies": [
                    "À bout de souffle"
                ],
                "poster_url": "img/img_movie/notreDameModern.jpg"
            },
            "bbox": [
                2.3499,
                48.8529,
                2.3499,
                48.8529
            ]
        },
        {
            "type": "Feature",
            "geometry": {
                "type": "Point",
                "coordinates": [
                    2.345,
                    48.853
                ]
            },
            "properties": {
                "name": "Les Rives de Notre Dame, quai St Michel, Paris",
                "label": "Quai Saint-Michel, Paris, France",
                "keywords": [
                    "Jean-Luc Godard"
                ],
                "movies": [
                    "À bout de souffle"
                ],
                "poster_url": "img/img_movie/hotelModern.jpg"
            },
            "bbox": [
                2.345,
                48.853,
                2.345,
                48.853
            ]
        },
        {
            "type": "Feature",
            "geometry": {
                "type": "Point",
                "coordinates": [
                    2.3006,
                    48.872
                ]
            },
            "properties": {
                "name": "The entrances to the George V Métro station",
                "label": "George V Metro Station, Paris, France",
                "keywords": [
                    "Jean-Luc Godard"
                ],
                "movies": [
                    "À bout de souffle"
                ],
                "poster_url": "img/img_movie/georgeVMetroModern.jpg"
            },
            "bbox": [
                2.3006,
                48.872,
                2.3006,
                48.872
            ]
        },
        {
            "type": "Feature",
            "geometry": {
                "type": "Point",
                "coordinates": [
                    2.3219,
                    48.8656
                ]
            },
            "properties": {
                "name": "Place de la Concorde",
                "label": "Place de la Concorde, Paris, France",
                "keywords": [
                    "Jean-Luc Godard",
                    "Top 10 locations"
                ],
                "movies": [
                    "À bout de souffle"
                ],
                "poster_url": "img/img_movie/placeConcordeModern.jpg"
            },
            "bbox": [
                2.3219,
                48.8656,
                2.3219,
                48.8656
            ]
        },
        {
            "type": "Feature",
            "geometry": {
                "type": "Point",
                "coordinates": [
                    2.3283,
                    48.8427
                ]
            },
            "properties": {
                "name": "Le Select, 99 boulevard Montparnasse",
                "label": "Le Select - 99 Bd du Montparnasse, Paris, France",
                "keywords": [
                    "Jean-Luc Godard"
                ],
                "movies": [
                    "À bout de souffle"
                ],
                "poster_url": "img/img_movie/leSelectModern.jpg"
            },
            "bbox": [
                2.3283,
                48.8427,
                2.3283,
                48.8427
            ]
        },
        {
            "type": "Feature",
            "geometry": {
                "type": "Point",
                "coordinates": [
                    2.3308,
                    48.839
                ]
            },
            "properties": {
                "name": "metro: Raspail",
                "label": "Raspail Metro Station, Paris, France",
                "keywords": [
                    "Jean-Luc Godard"
                ],
                "movies": [
                    "À bout de souffle"
                ],
                "poster_url": "img/img_movie/metroRaspailModern.jpg"
            },
            "bbox": [
                2.3308,
                48.839,
                2.3308,
                48.839
            ]
        },
        {
            "type": "Feature",
            "geometry": {
                "type": "Point",
                "coordinates": [
                    2.433,
                    48.816
                ]
            },
            "properties": {
                "name": "Ile des Corbeaux at Saint-Maurice",
                "label": "Île des Corbeaux, Saint-Maurice, France",
                "keywords": [
                    "Jean-Luc Godard",
                    "Hidden Gems"
                ],
                "movies": [
                    "Bande à part"
                ],
                "poster_url": "img/img_movie/ileDeCorbeauxModern.jpg"
            },
            "bbox": [
                2.433,
                48.816,
                2.433,
                48.816
            ]
        },
        {
            "type": "Feature",
            "geometry": {
                "type": "Point",
                "coordinates": [
                    2.369,
                    48.8531
                ]
            },
            "properties": {
                "name": "Column de Juillet, Paris",
                "label": "July Column, Place de la Bastille, Paris, France",
                "keywords": [
                    "Jean-Luc Godard"
                ],
                "movies": [
                    "Bande à part"
                ],
                "poster_url": "img/img_movie/colonneJuilletModern.png"
            },
            "bbox": [
                2.369,
                48.8531,
                2.369,
                48.8531
            ]
        },
        {
            "type": "Feature",
            "geometry": {
                "type": "Point",
                "coordinates": [
                    2.3385,
                    48.8569
                ]
            },
            "properties": {
                "name": "quai de Conti",
                "label": "Quai de Conti, Paris, France",
                "keywords": [
                    "Jean-Luc Godard"
                ],
                "movies": [
                    "Bande à part"
                ],
                "poster_url": "img/img_movie/quaiDeContiModern.png"
            },
            "bbox": [
                2.3385,
                48.8569,
                2.3385,
                48.8569
            ]
        },
        {
            "type": "Feature",
            "geometry": {
                "type": "Point",
                "coordinates": [
                    2.3376,
                    48.8606
                ]
            },
            "properties": {
                "name": "The Louvre Museum, Paris",
                "label": "Louvre Museum, Paris, France",
                "keywords": [
                    "Jean-Luc Godard",
                    "Top 10 locations"
                ],
                "movies": [
                    "Bande à part"
                ],
                "poster_url": "img/img_movie/louvreModern.png"
            },
            "bbox": [
                2.3376,
                48.8606,
                2.3376,
                48.8606
            ]
        },
        {
            "type": "Feature",
            "geometry": {
                "type": "Point",
                "coordinates": [
                    2.3116,
                    48.8828
                ]
            },
            "properties": {
                "name": "street market in Pl. de Levis",
                "label": "Place de Lévis, Paris, France",
                "keywords": [
                    "Hidden Gems"
                ],
                "movies": [
                    "La Boulangère de Monceau"
                ],
                "poster_url": "img/img_movie/placeLevisModern.jpeg"
            },
            "bbox": [
                2.3116,
                48.8828,
                2.3116,
                48.8828
            ]
        },
        {
            "type": "Feature",
            "geometry": {
                "type": "Point",
                "coordinates": [
                    2.3422,
                    48.8719
                ]
            },
            "properties": {
                "name": "boulevard Montmartre 12",
                "label": "12 Boulevard Montmartre, Paris, France",
                "keywords": [
                    "Hidden Gems"
                ],
                "movies": [
                    "Les 400 coups"
                ],
                "poster_url": "img/img_movie/montMartreModern.png"
            },
            "bbox": [
                2.3422,
                48.8719,
                2.3422,
                48.8719
            ]
        },
        {
            "type": "Feature",
            "geometry": {
                "type": "Point",
                "coordinates": [
                    2.3303,
                    48.8836
                ]
            },
            "properties": {
                "name": "Rue Puget 2",
                "label": "2 Rue Puget, Paris, France",
                "keywords": [
                    "Hidden Gems"
                ],
                "movies": [
                    "Les 400 coups"
                ],
                "poster_url": "img/img_movie/ruePugetModern.jpg"
            },
            "bbox": [
                2.3303,
                48.8836,
                2.3303,
                48.8836
            ]
        },
        {
            "type": "Feature",
            "geometry": {
                "type": "Point",
                "coordinates": [
                    2.3328,
                    48.8837
                ]
            },
            "properties": {
                "name": "Rue Lepic 3",
                "label": "3 Rue Lepic, Paris, France",
                "keywords": [],
                "movies": [
                    "Les 400 coups"
                ],
                "poster_url": "img/img_movie/rueLepicModern.jpg"
            },
            "bbox": [
                2.3328,
                48.8837,
                2.3328,
                48.8837
            ]
        },
        {
            "type": "Feature",
            "geometry": {
                "type": "Point",
                "coordinates": [
                    2.3317,
                    48.877
                ]
            },
            "properties": {
                "name": "Square d'Estienne d'Orves",
                "label": "Square d'Estienne d'Orves, Paris, France",
                "keywords": [
                    "Hidden Gems"
                ],
                "movies": [
                    "Les 400 coups"
                ],
                "poster_url": "img/img_movie/estienneOrvesModern.png"
            },
            "bbox": [
                2.3317,
                48.877,
                2.3317,
                48.877
            ]
        },
        {
            "type": "Feature",
            "geometry": {
                "type": "Point",
                "coordinates": [
                    2.3431,
                    48.8867
                ]
            },
            "properties": {
                "name": "Sacré-Cœur in Montmartre.",
                "label": "Sacré-Cœur, Montmartre, Paris, France",
                "keywords": [
                    "Top 10 locations",
                    "Cinematic Churches"
                ],
                "movies": [
                    "Les 400 coups"
                ],
                "poster_url": "img/img_movie/sacreCoeurModern.png"
            },
            "bbox": [
                2.3431,
                48.8867,
                2.3431,
                48.8867
            ]
        },
        {
            "type": "Feature",
            "geometry": {
                "type": "Point",
                "coordinates": [
                    2.306,
                    48.8705
                ]
            },
            "properties": {
                "name": "Champs Elysées (60 avenue des Champs Elysées)",
                "label": "60 Avenue des Champs-Élysées, Paris, France",
                "keywords": [
                    "Top 10 locations"
                ],
                "movies": [
                    "Les 400 coups"
                ],
                "poster_url": "img/img_movie/champsElyseesModern.jpg"
            },
            "bbox": [
                2.306,
                48.8705,
                2.306,
                48.8705
            ]
        },
        {
            "type": "Feature",
            "geometry": {
                "type": "Point",
                "coordinates": [
                    2.2884,
                    48.8624
                ]
            },
            "properties": {
                "name": "Palais de Chaillot",
                "label": "Palais de Chaillot, Paris, France",
                "keywords": [
                    "Top 10 locations"
                ],
                "movies": [
                    "Les 400 coups"
                ],
                "poster_url": "img/img_movie/palaisDeChaillotModern.jpg"
            },
            "bbox": [
                2.2884,
                48.8624,
                2.2884,
                48.8624
            ]
        },
        {
            "type": "Feature",
            "geometry": {
                "type": "Point",
                "coordinates": [
                    2.3415,
                    48.8601
                ]
            },
            "properties": {
                "name": "128 Rue de Rivoli",
                "label": "128 Rue de Rivoli, Paris, France",
                "keywords": [
                    "Agnès Varda"
                ],
                "movies": [
                    "Cléo de 5 à 7"
                ],
                "poster_url": "img/img_movie/rueDeRivoliModern.png"
            },
            "bbox": [
                2.3415,
                48.8601,
                2.3415,
                48.8601
            ]
        },
        {
            "type": "Feature",
            "geometry": {
                "type": "Point",
                "coordinates": [
                    2.3289,
                    48.8425
                ]
            },
            "properties": {
                "name": "Café du Dôme",
                "label": "Café du Dôme - 108 Bd du Montparnasse, Paris, France",
                "keywords": [
                    "Agnès Varda",
                    "Top 10 locations"
                ],
                "movies": [
                    "Cléo de 5 à 7"
                ],
                "poster_url": "img/img_movie/cafeDuDomeModern.png"
            },
            "bbox": [
                2.3289,
                48.8425,
                2.3289,
                48.8425
            ]
        },
        {
            "type": "Feature",
            "geometry": {
                "type": "Point",
                "coordinates": [
                    2.338,
                    48.8225
                ]
            },
            "properties": {
                "name": "Parc Montsouris",
                "label": "Parc Montsouris, Paris, France",
                "keywords": [
                    "Agnès Varda"
                ],
                "movies": [
                    "Cléo de 5 à 7"
                ],
                "poster_url": "img/img_movie/parcMontsourisModern.png"
            },
            "bbox": [
                2.338,
                48.8225,
                2.338,
                48.8225
            ]
        },
        {
            "type": "Feature",
            "geometry": {
                "type": "Point",
                "coordinates": [
                    2.295035,
                    48.873771
                ]
            },
            "properties": {
                "name": "Arc de Triomphe",
                "label": "Arc de Triomphe - Place Charles de Gaulle, 75008 Paris, France",
                "keywords": [
                    "Top 10 locations"
                ],
                "movies": [
                    "Paris nous appartient"
                ],
                "poster_url": "img/img_movie/arcDeTriompheModern.jpg"
            },
            "bbox": [
                2.295035,
                48.873771,
                2.295035,
                48.873771
            ]
        }
    ]
}